{
  "norad_id": 61942,
  "name": "STARLINK-11320 [DTC]",
  "history": [
    {
      "epoch": "2026-03-28T19:01:48.593856",
      "apogee_km": 360.50996238562675,
      "perigee_km": 358.9013698275203,
      "latitude_deg": -30.325622180563812,
      "longitude_deg": 90.32065984001383,
      "semi_major_axis_km": 6737.842666106573,
      "eccentricity": 0.00011937,
      "inclination_deg": 53.1584,
      "raan_deg": 277.4302,
      "arg_perigee_deg": 103.539,
      "mean_anomaly_deg": 256.5761,
      "mean_motion_rev_day": 15.69717368
    }
  ]
}